H1 CPF 01  gfz 2022 07 09 00  6901 tandemx   
H2 1003001  6202 36605    2022 07 09 00 59 42 2022 07 14 00 00 42   120 1 1  0 0 0
H9
10 0 59769  20142.000000  0   -6839596.231   -801503.559   -212074.018
10 0 59769  20262.000000  0   -6825452.966   -620714.753    692010.452
10 0 59769  20382.000000  0   -6688741.913   -430394.533   1583909.412
10 0 59769  20502.000000  0   -6431703.515   -235993.710   2447912.782
10 0 59769  20622.000000  0   -6058800.945    -42978.324   3268801.754
10 0 59769  20742.000000  0   -5576636.761    143306.245   4032124.703
10 0 59769  20862.000000  0   -4993826.864    317766.589   4724456.435
10 0 59769  20982.000000  0   -4320836.009    475684.826   5333635.414
10 0 59769  21102.000000  0   -3569780.288    612832.264   5848975.273
10 0 59769  21222.000000  0   -2754200.092    725569.702   6261449.011
10 0 59769  21342.000000  0   -1888808.622    810932.245   6563841.937
10 0 59769  21462.000000  0    -989220.757    866698.421   6750872.288
10 0 59769  21582.000000  0     -71668.614    891441.163   6819276.649
10 0 59769  21702.000000  0     847290.978    884559.913   6767862.681
10 0 59769  21822.000000  0    1751073.980    846293.972   6597528.566
10 0 59769  21942.000000  0    2623367.299    777716.635   6311248.453
10 0 59769  22062.000000  0    3448423.258    680709.919   5914024.578
10 0 59769  22182.000000  0    4211346.503    557920.443   5412804.845
10 0 59769  22302.000000  0    4898366.641    412697.160   4816367.131
10 0 59769  22422.000000  0    5497093.443    249011.058   4135172.182
10 0 59769  22542.000000  0    5996750.149     71360.188   3381184.552
10 0 59769  22662.000000  0    6388378.096   -115338.283   2567663.520
10 0 59769  22782.000000  0    6665006.546   -305868.083   1708927.843
10 0 59769  22902.000000  0    6821785.100   -494843.226    820100.403
10 0 59769  23022.000000  0    6856075.461   -676841.180    -83164.702
10 0 59769  23142.000000  0    6767498.661   -846538.585   -984967.177
10 0 59769  23262.000000  0    6557935.201   -998845.531  -1869449.494
10 0 59769  23382.000000  0    6231480.191  -1129034.442  -2721083.792
10 0 59769  23502.000000  0    5794354.253  -1232860.664  -3524949.865
10 0 59769  23622.000000  0    5254773.752  -1306671.537  -4266998.841
10 0 59769  23742.000000  0    4622784.094  -1347501.051  -4934297.076
10 0 59769  23862.000000  0    3910061.601  -1353148.826  -5515246.515
10 0 59769  23982.000000  0    3129687.751  -1322242.293  -5999778.287
10 0 59769  24102.000000  0    2295902.181  -1254279.951  -6379516.152
10 0 59769  24222.000000  0    1423840.287  -1149654.668  -6647910.285
10 0 59769  24342.000000  0     529258.966  -1009658.454  -6800339.488
10 0 59769  24462.000000  0    -371744.253   -836468.384  -6834182.313
10 0 59769  24582.000000  0   -1263014.519   -633113.188  -6748856.719
10 0 59769  24702.000000  0   -2128622.686   -403421.451  -6545829.404
10 0 59769  24822.000000  0   -2953143.658   -151951.642  -6228592.174
10 0 59769  24942.000000  0   -3721924.881    116094.287  -5802608.351
10 0 59769  25062.000000  0   -4421345.269    394973.507  -5275229.579
10 0 59769  25182.000000  0   -5039058.348    678518.841  -4655579.687
10 0 59769  25302.000000  0   -5564216.329    960267.862  -3954409.575
10 0 59769  25422.000000  0   -5987670.769   1233603.420  -3183920.563
10 0 59769  25542.000000  0   -6302143.478   1491901.282  -2357559.077
10 0 59769  25662.000000  0   -6502364.254   1728681.580  -1489785.696
10 0 59769  25782.000000  0   -6585171.847   1937761.421   -595821.854
10 0 59769  25902.000000  0   -6549573.570   2113403.874    308622.319
10 0 59769  26022.000000  0   -6396760.812   2250459.315   1207631.342
10 0 59769  26142.000000  0   -6130081.022   2344496.731   2085372.685
10 0 59769  26262.000000  0   -5754965.799   2391920.754   2926384.926
10 0 59769  26382.000000  0   -5278817.172   2390070.682   3715858.332
10 0 59769  26502.000000  0   -4710854.581   2337298.881   4439901.912
10 0 59769  26622.000000  0   -4061927.621   2233027.624   5085789.981
10 0 59769  26742.000000  0   -3344300.699   2077783.149   5642185.128
10 0 59769  26862.000000  0   -2571413.702   1873206.871   6099335.282
10 0 59769  26982.000000  0   -1757622.481   1622042.474   6449240.380
10 0 59769  27102.000000  0    -917926.643   1328099.344   6685785.991
10 0 59769  27222.000000  0     -67690.785    996193.943   6804842.736
10 0 59769  27342.000000  0     777636.093    632070.123   6804333.444
10 0 59769  27462.000000  0    1602800.222    242299.678   6684266.959
10 0 59769  27582.000000  0    2393016.985   -165835.487   6446738.231
10 0 59769  27702.000000  0    3134235.492   -584478.626   6095895.309
10 0 59769  27822.000000  0    3813390.545  -1005347.968   5637871.675
10 0 59769  27942.000000  0    4418636.796  -1419899.286   5080684.485
10 0 59769  28062.000000  0    4939560.373  -1819498.427   4434100.128
10 0 59769  28182.000000  0    5367366.051  -2195599.725   3709468.736
10 0 59769  28302.000000  0    5695035.146  -2539927.831   2919527.377
10 0 59769  28422.000000  0    5917448.078  -2844658.340   2078175.277
10 0 59769  28542.000000  0    6031470.189  -3102592.329   1200226.982
10 0 59769  28662.000000  0    6035999.582  -3307321.713    301145.837
10 0 59769  28782.000000  0    5931972.356  -3453379.442   -603236.470
10 0 59769  28902.000000  0    5722327.830  -3536371.873  -1497007.973
10 0 59769  29022.000000  0    5411931.191  -3553088.161  -2364465.574
10 0 59769  29142.000000  0    5007459.209  -3501585.712  -3190396.934
10 0 59769  29262.000000  0    4517251.303  -3381249.525  -3960351.388
10 0 59769  29382.000000  0    3951129.952  -3192824.322  -4660893.020
10 0 59769  29502.000000  0    3320195.348  -2938418.383  -5279831.923
10 0 59769  29622.000000  0    2636600.506  -2621479.778  -5806428.166
10 0 59769  29742.000000  0    1913313.671  -2246748.131  -6231567.582
10 0 59769  29862.000000  0    1163871.084  -1820181.666  -6547910.176
10 0 59769  29982.000000  0     402123.489  -1348859.266  -6750006.372
10 0 59769  30102.000000  0    -358016.604   -840862.461  -6834380.422
10 0 59769  30222.000000  0   -1102823.376   -305138.670  -6799582.828
10 0 59769  30342.000000  0   -1818999.675    248652.797  -6646212.431
10 0 59769  30462.000000  0   -2493908.930    810310.510  -6376906.394
10 0 59769  30582.000000  0   -3115793.004   1369273.680  -5996299.821
10 0 59769  30702.000000  0   -3673974.525   1914815.811  -5510955.286
10 0 59769  30822.000000  0   -4159042.303   2436246.979  -4929261.700
10 0 59769  30942.000000  0   -4563015.030   2923122.039  -4261300.211
10 0 59769  31062.000000  0   -4879478.784   3365449.305  -3518679.245
10 0 59769  31182.000000  0   -5103696.930   3753896.599  -2714342.234
10 0 59769  31302.000000  0   -5232689.054   4079990.420  -1862347.127
10 0 59769  31422.000000  0   -5265276.378   4336302.178   -977622.609
10 0 59769  31542.000000  0   -5202092.387   4516617.573    -75704.080
10 0 59769  31662.000000  0   -5045556.704   4616084.511    827545.137
10 0 59769  31782.000000  0   -4799811.981   4631333.824   1716222.092
10 0 59769  31902.000000  0   -4470625.271   4560569.760   2574673.659
10 0 59769  32022.000000  0   -4065256.313   4403629.068   3387780.652
10 0 59769  32142.000000  0   -3592296.961   4162006.578   4141230.649
10 0 59769  32262.000000  0   -3061486.646   3838846.748   4821773.863
10 0 59769  32382.000000  0   -2483507.930   3438901.967   5417457.987
10 0 59769  32502.000000  0   -1869766.618   2968458.508   5917836.599
10 0 59769  32622.000000  0   -1232162.231   2435232.493   6314148.151
10 0 59769  32742.000000  0    -582854.106   1848237.791   6599462.432
10 0 59769  32862.000000  0      65970.137   1217630.592   6768794.950
10 0 59769  32982.000000  0     702323.322    554531.658   6819189.307
10 0 59769  33102.000000  0    1314639.390   -129169.790   6749764.884
10 0 59769  33222.000000  0    1891982.521   -821028.365   6561731.971
10 0 59769  33342.000000  0    2424242.049  -1508268.638   6258372.303
10 0 59769  33462.000000  0    2902310.502  -2178020.251   5844986.349
10 0 59769  33582.000000  0    3318242.285  -2817559.935   5328806.049
10 0 59769  33702.000000  0    3665388.976  -3414555.007   4718874.197
10 0 59769  33822.000000  0    3938509.839  -3957304.733   4025891.605
10 0 59769  33942.000000  0    4133854.942  -4434974.507   3262032.841
10 0 59769  34062.000000  0    4249218.316  -4837817.693   2440733.582
10 0 59769  34182.000000  0    4283960.471  -5157379.639   1576452.279
10 0 59769  34302.000000  0    4238998.550  -5386678.317    684410.613
10 0 59769  34422.000000  0    4116763.916  -5520356.559   -219681.675
10 0 59769  34542.000000  0    3921130.067  -5554803.259  -1119911.103
10 0 59769  34662.000000  0    3657310.512  -5488240.080  -2000449.899
10 0 59769  34782.000000  0    3331729.690  -5320769.637  -2845841.654
10 0 59769  34902.000000  0    2951871.698  -5054386.250  -3641278.929
10 0 59769  35022.000000  0    2526109.249  -4692948.404  -4372864.844
10 0 59769  35142.000000  0    2063518.142  -4242114.794  -5027854.087
10 0 59769  35262.000000  0    1573683.322  -3709245.578  -5594868.782
10 0 59769  35382.000000  0    1066501.169  -3103273.519  -6064086.535
10 0 59769  35502.000000  0     551980.798  -2434548.351  -6427400.067
10 0 59769  35622.000000  0      40048.561  -1714656.005  -6678546.430
10 0 59769  35742.000000  0    -459639.565   -956216.500  -6813204.285
10 0 59769  35862.000000  0    -937874.852   -172664.593  -6829060.015
10 0 59769  35982.000000  0   -1386061.156    621983.383  -6725842.351
10 0 59769  36102.000000  0   -1796365.898   1413373.557  -6505326.067
10 0 59769  36222.000000  0   -2161853.589   2187067.338  -6171304.614
10 0 59769  36342.000000  0   -2476601.887   2928798.715  -5729532.993
10 0 59769  36462.000000  0   -2735798.090   3624734.627  -5187638.971
10 0 59769  36582.000000  0   -2935814.583   4261733.121  -4555003.384
99
